{
    "links": {
        "self": "http://www.neowsapp.com/rest/v1/neo/3745028?api_key=iIulBulltgU6a56xZRHN4H3l9WmuAYTsLGpBGhQ2"
    },
    "id": "3745028",
    "neo_reference_id": "3745028",
    "name": "(2016 EC1)",
    "designation": "2016 EC1",
    "nasa_jpl_url": "http://ssd.jpl.nasa.gov/sbdb.cgi?sstr=3745028",
    "absolute_magnitude_h": 23.0,
    "estimated_diameter": {
        "kilometers": {
            "estimated_diameter_min": 0.0667659413,
            "estimated_diameter_max": 0.1492931834
        },
        "meters": {
            "estimated_diameter_min": 66.7659413495,
            "estimated_diameter_max": 149.2931834393
        },
        "miles": {
            "estimated_diameter_min": 0.0414864197,
            "estimated_diameter_max": 0.0927664547
        },
        "feet": {
            "estimated_diameter_min": 219.0483710172,
            "estimated_diameter_max": 489.807047955
        }
    },
    "is_potentially_hazardous_asteroid": false,
    "close_approach_data": [
        {
            "close_approach_date": "2016-03-06",
            "close_approach_date_full": "2016-Mar-06 12:27",
            "epoch_date_close_approach": 1457267220000,
            "relative_velocity": {
                "kilometers_per_second": "12.8058469232",
                "kilometers_per_hour": "46101.0489236489",
                "miles_per_hour": "28645.3989825862"
            },
            "miss_distance": {
                "astronomical": "0.0882854116",
                "lunar": "34.3430251124",
                "kilometers": "13207309.527433292",
                "miles": "8206641.5933197496"
            },
            "orbiting_body": "Earth"
        },
        {
            "close_approach_date": "2019-04-16",
            "close_approach_date_full": "2019-Apr-16 17:41",
            "epoch_date_close_approach": 1555436460000,
            "relative_velocity": {
                "kilometers_per_second": "16.6306273749",
                "kilometers_per_hour": "59870.258549658",
                "miles_per_hour": "37201.050374925"
            },
            "miss_distance": {
                "astronomical": "0.4243762924",
                "lunar": "165.0823777436",
                "kilometers": "63485789.421537188",
                "miles": "39448240.3073336744"
            },
            "orbiting_body": "Earth"
        }
    ],
    "orbital_data": {
        "orbit_id": "5",
        "orbit_determination_date": "2017-04-06 08:27:56",
        "first_observation_date": "2016-03-01",
        "last_observation_date": "2016-03-14",
        "data_arc_in_days": 13,
        "observations_used": 70,
        "orbit_uncertainty": "8",
        "minimum_orbit_intersection": ".0691071",
        "jupiter_tisserand_invariant": "3.503",
        "epoch_osculation": "2457449.5",
        "eccentricity": ".5018536315502777",
        "semi_major_axis": "2.114929322930601",
        "inclination": "18.96828257012919",
        "ascending_node_longitude": "347.1243970181039",
        "orbital_period": "1123.420164391986",
        "perihelion_distance": "1.053544361745709",
        "perihelion_argument": "194.0997131161025",
        "aphelion_distance": "3.176314284115494",
        "perihelion_time": "2457464.783352979725",
        "mean_anomaly": "355.1024494244513",
        "mean_motion": ".3204500074064793",
        "equinox": "J2000",
        "orbit_class": {
            "orbit_class_type": "AMO",
            "orbit_class_description": "Near-Earth asteroid orbits similar to that of 1221 Amor",
            "orbit_class_range": "1.017 AU < q (perihelion) < 1.3 AU"
        }
    },
    "is_sentry_object": false
}